[{"OBJECT_NAME":"STARLINK-32165","OBJECT_ID":"2024-150S","EPOCH":"2026-02-13T10:22:27.517152","MEAN_MOTION":15.30190145,"ECCENTRICITY":0.00014372,"INCLINATION":53.161,"RA_OF_ASC_NODE":59.9689,"ARG_OF_PERICENTER":92.8313,"MEAN_ANOMALY":267.2853,"EPHEMERIS_TYPE":0,"CLASSIFICATION_TYPE":"U","NORAD_CAT_ID":60599,"ELEMENT_SET_NO":999,"REV_AT_EPOCH":8432,"BSTAR":1.0771023e-5,"MEAN_MOTION_DOT":-4.0e-7,"MEAN_MOTION_DDOT":0},{"OBJECT_NAME":"STARLINK-31923","OBJECT_ID":"2024-150T","EPOCH":"2026-02-13T13:15:21.961728","MEAN_MOTION":15.30190552,"ECCENTRICITY":0.00012199,"INCLINATION":53.1614,"RA_OF_ASC_NODE":59.2949,"ARG_OF_PERICENTER":92.8475,"MEAN_ANOMALY":267.2666,"EPHEMERIS_TYPE":0,"CLASSIFICATION_TYPE":"U","NORAD_CAT_ID":60600,"ELEMENT_SET_NO":999,"REV_AT_EPOCH":8434,"BSTAR":-5.494743e-6,"MEAN_MOTION_DOT":-5.22e-6,"MEAN_MOTION_DDOT":0},{"OBJECT_NAME":"STARLINK-31988","OBJECT_ID":"2024-150U","EPOCH":"2026-02-13T13:06:10.760832","MEAN_MOTION":15.30248718,"ECCENTRICITY":0.00016198,"INCLINATION":53.1581,"RA_OF_ASC_NODE":59.2557,"ARG_OF_PERICENTER":79.5657,"MEAN_ANOMALY":280.5526,"EPHEMERIS_TYPE":0,"CLASSIFICATION_TYPE":"U","NORAD_CAT_ID":60601,"ELEMENT_SET_NO":999,"REV_AT_EPOCH":8426,"BSTAR":0.00021488972,"MEAN_MOTION_DOT":6.02e-5,"MEAN_MOTION_DDOT":0},{"OBJECT_NAME":"STARLINK-31983","OBJECT_ID":"2024-150V","EPOCH":"2026-02-13T11:13:55.683840","MEAN_MOTION":15.30242017,"ECCENTRICITY":0.00016731,"INCLINATION":53.1578,"RA_OF_ASC_NODE":59.4793,"ARG_OF_PERICENTER":89.8636,"MEAN_ANOMALY":270.2557,"EPHEMERIS_TYPE":0,"CLASSIFICATION_TYPE":"U","NORAD_CAT_ID":60602,"ELEMENT_SET_NO":999,"REV_AT_EPOCH":8425,"BSTAR":-0.00064966084,"MEAN_MOTION_DOT":-0.00019576,"MEAN_MOTION_DDOT":0},{"OBJECT_NAME":"STARLINK-31874","OBJECT_ID":"2024-150W","EPOCH":"2026-02-13T11:23:04.405056","MEAN_MOTION":15.30195537,"ECCENTRICITY":9.073e-5,"INCLINATION":53.1582,"RA_OF_ASC_NODE":59.5194,"ARG_OF_PERICENTER":95.1006,"MEAN_ANOMALY":265.0098,"EPHEMERIS_TYPE":0,"CLASSIFICATION_TYPE":"U","NORAD_CAT_ID":60603,"ELEMENT_SET_NO":999,"REV_AT_EPOCH":8433,"BSTAR":2.0184919e-5,"MEAN_MOTION_DOT":2.39e-6,"MEAN_MOTION_DDOT":0},{"OBJECT_NAME":"STARLINK-32039","OBJECT_ID":"2024-150X","EPOCH":"2026-02-13T08:00:41.731776","MEAN_MOTION":15.30196727,"ECCENTRICITY":0.00010216,"INCLINATION":53.1617,"RA_OF_ASC_NODE":62.9085,"ARG_OF_PERICENTER":76.1871,"MEAN_ANOMALY":283.9243,"EPHEMERIS_TYPE":0,"CLASSIFICATION_TYPE":"U","NORAD_CAT_ID":60604,"ELEMENT_SET_NO":999,"REV_AT_EPOCH":8427,"BSTAR":1.0486035e-5,"MEAN_MOTION_DOT":-4.8e-7,"MEAN_MOTION_DDOT":0},{"OBJECT_NAME":"STARLINK-11247 [DTC]","OBJECT_ID":"2024-152A","EPOCH":"2026-02-13T21:29:49.197984","MEAN_MOTION":15.6972117,"ECCENTRICITY":0.00017541,"INCLINATION":53.1571,"RA_OF_ASC_NODE":233.8724,"ARG_OF_PERICENTER":78.4512,"MEAN_ANOMALY":281.6702,"EPHEMERIS_TYPE":0,"CLASSIFICATION_TYPE":"U","NORAD_CAT_ID":60720,"ELEMENT_SET_NO":999,"REV_AT_EPOCH":8509,"BSTAR":1.0266074e-5,"MEAN_MOTION_DOT":6.55e-6,"MEAN_MOTION_DDOT":0},{"OBJECT_NAME":"STARLINK-11259 [DTC]","OBJECT_ID":"2024-152B","EPOCH":"2026-02-13T16:47:42.070272","MEAN_MOTION":15.69717132,"ECCENTRICITY":7.965e-5,"INCLINATION":53.1585,"RA_OF_ASC_NODE":234.7785,"ARG_OF_PERICENTER":111.7233,"MEAN_ANOMALY":248.3869,"EPHEMERIS_TYPE":0,"CLASSIFICATION_TYPE":"U","NORAD_CAT_ID":60721,"ELEMENT_SET_NO":999,"REV_AT_EPOCH":8506,"BSTAR":-1.345546e-6,"MEAN_MOTION_DOT":-7.51e-6,"MEAN_MOTION_DDOT":0},{"OBJECT_NAME":"STARLINK-11188 [DTC]","OBJECT_ID":"2024-152C","EPOCH":"2026-02-13T16:40:38.181504","MEAN_MOTION":15.69720588,"ECCENTRICITY":0.00010546,"INCLINATION":53.1588,"RA_OF_ASC_NODE":234.7427,"ARG_OF_PERICENTER":141.77,"MEAN_ANOMALY":218.3393,"EPHEMERIS_TYPE":0,"CLASSIFICATION_TYPE":"U","NORAD_CAT_ID":60722,"ELEMENT_SET_NO":999,"REV_AT_EPOCH":8518,"BSTAR":-4.609403e-6,"MEAN_MOTION_DOT":-1.147e-5,"MEAN_MOTION_DDOT":0},{"OBJECT_NAME":"STARLINK-11272 [DTC]","OBJECT_ID":"2024-152D","EPOCH":"2026-02-13T21:01:33.622176","MEAN_MOTION":15.69709473,"ECCENTRICITY":0.00011622,"INCLINATION":53.1601,"RA_OF_ASC_NODE":233.7333,"ARG_OF_PERICENTER":127.0602,"MEAN_ANOMALY":233.0523,"EPHEMERIS_TYPE":0,"CLASSIFICATION_TYPE":"U","NORAD_CAT_ID":60723,"ELEMENT_SET_NO":999,"REV_AT_EPOCH":8509,"BSTAR":1.7909612e-5,"MEAN_MOTION_DOT":1.581e-5,"MEAN_MOTION_DDOT":0},{"OBJECT_NAME":"STARLINK-11261 [DTC]","OBJECT_ID":"2024-152E","EPOCH":"2026-02-13T16:33:34.449120","MEAN_MOTION":15.69725479,"ECCENTRICITY":7.114e-5,"INCLINATION":53.1572,"RA_OF_ASC_NODE":234.7093,"ARG_OF_PERICENTER":45.4919,"MEAN_ANOMALY":314.6157,"EPHEMERIS_TYPE":0,"CLASSIFICATION_TYPE":"U","NORAD_CAT_ID":60724,"ELEMENT_SET_NO":999,"REV_AT_EPOCH":8506,"BSTAR":-1.5866653e-5,"MEAN_MOTION_DOT":-2.511e-5,"MEAN_MOTION_DDOT":0},{"OBJECT_NAME":"STARLINK-11263 [DTC]","OBJECT_ID":"2024-152F","EPOCH":"2026-02-13T20:54:29.920896","MEAN_MOTION":15.69705231,"ECCENTRICITY":0.00016913,"INCLINATION":53.159,"RA_OF_ASC_NODE":233.7032,"ARG_OF_PERICENTER":149.2421,"MEAN_ANOMALY":210.8696,"EPHEMERIS_TYPE":0,"CLASSIFICATION_TYPE":"U","NORAD_CAT_ID":60725,"ELEMENT_SET_NO":999,"REV_AT_EPOCH":8509,"BSTAR":2.1752099e-5,"MEAN_MOTION_DOT":2.046e-5,"MEAN_MOTION_DDOT":0},{"OBJECT_NAME":"STARLINK-11235 [DTC]","OBJECT_ID":"2024-152G","EPOCH":"2026-02-13T22:19:07.497696","MEAN_MOTION":15.69704319,"ECCENTRICITY":0.00011743,"INCLINATION":53.1597,"RA_OF_ASC_NODE":233.3541,"ARG_OF_PERICENTER":84.2809,"MEAN_ANOMALY":275.8342,"EPHEMERIS_TYPE":0,"CLASSIFICATION_TYPE":"U","NORAD_CAT_ID":60726,"ELEMENT_SET_NO":999,"REV_AT_EPOCH":8523,"BSTAR":4.0466281e-5,"MEAN_MOTION_DOT":4.315e-5,"MEAN_MOTION_DDOT":0},{"OBJECT_NAME":"STARLINK-11080 [DTC]","OBJECT_ID":"2024-152H","EPOCH":"2026-02-13T22:12:03.199392","MEAN_MOTION":15.69706122,"ECCENTRICITY":0.00012236,"INCLINATION":53.1581,"RA_OF_ASC_NODE":233.3256,"ARG_OF_PERICENTER":117.9951,"MEAN_ANOMALY":242.1191,"EPHEMERIS_TYPE":0,"CLASSIFICATION_TYPE":"U","NORAD_CAT_ID":60727,"ELEMENT_SET_NO":999,"REV_AT_EPOCH":8523,"BSTAR":3.1066778e-5,"MEAN_MOTION_DOT":3.176e-5,"MEAN_MOTION_DDOT":0},{"OBJECT_NAME":"STARLINK-11249 [DTC]","OBJECT_ID":"2024-152J","EPOCH":"2026-02-13T17:29:56.172768","MEAN_MOTION":15.69717427,"ECCENTRICITY":8.213e-5,"INCLINATION":53.158,"RA_OF_ASC_NODE":234.2355,"ARG_OF_PERICENTER":89.2339,"MEAN_ANOMALY":270.8773,"EPHEMERIS_TYPE":0,"CLASSIFICATION_TYPE":"U","NORAD_CAT_ID":60728,"ELEMENT_SET_NO":999,"REV_AT_EPOCH":8507,"BSTAR":2.93584e-7,"MEAN_MOTION_DOT":-5.53e-6,"MEAN_MOTION_DDOT":0},{"OBJECT_NAME":"STARLINK-11146 [DTC]","OBJECT_ID":"2024-152K","EPOCH":"2026-02-13T21:57:55.112544","MEAN_MOTION":15.69716954,"ECCENTRICITY":5.969e-5,"INCLINATION":53.1587,"RA_OF_ASC_NODE":233.252,"ARG_OF_PERICENTER":80.5657,"MEAN_ANOMALY":279.5428,"EPHEMERIS_TYPE":0,"CLASSIFICATION_TYPE":"U","NORAD_CAT_ID":60729,"ELEMENT_SET_NO":999,"REV_AT_EPOCH":8523,"BSTAR":1.455062e-5,"MEAN_MOTION_DOT":1.176e-5,"MEAN_MOTION_DDOT":0}]
