STARLINK-32165          
1 60599U 24150S   26044.43226293 -.00000040  00000+0  10771-4 0  9992
2 60599  53.1610  59.9689 0001437  92.8313 267.2853 15.30190145 84323
STARLINK-31923          
1 60600U 24150T   26044.55233752 -.00000522  00000+0 -54947-5 0  9996
2 60600  53.1614  59.2949 0001219  92.8475 267.2666 15.30190552 84345
STARLINK-31988          
1 60601U 24150U   26044.54595788  .00006020  00000+0  21489-3 0  9996
2 60601  53.1581  59.2557 0001619  79.5657 280.5526 15.30248718 84264
STARLINK-31983          
1 60602U 24150V   26044.46800560 -.00019576  00000+0 -64966-3 0  9994
2 60602  53.1578  59.4793 0001673  89.8636 270.2557 15.30242017 84251
STARLINK-31874          
1 60603U 24150W   26044.47435654  .00000239  00000+0  20185-4 0  9994
2 60603  53.1582  59.5194 0000907  95.1006 265.0098 15.30195537 84338
STARLINK-32039          
1 60604U 24150X   26044.33381634 -.00000048  00000+0  10486-4 0  9990
2 60604  53.1617  62.9085 0001021  76.1871 283.9243 15.30196727 84278
STARLINK-11247 [DTC]    
1 60720U 24152A   26044.89570831  .00000655  00000+0  10266-4 0  9990
2 60720  53.1571 233.8724 0001754  78.4512 281.6702 15.69721170 85099
STARLINK-11259 [DTC]    
1 60721U 24152B   26044.69979248 -.00000751  00000+0 -13455-5 0  9997
2 60721  53.1585 234.7785 0000796 111.7233 248.3869 15.69717132 85062
STARLINK-11188 [DTC]    
1 60722U 24152C   26044.69488636 -.00001147  00000+0 -46094-5 0  9999
2 60722  53.1588 234.7427 0001054 141.7700 218.3393 15.69720588 85180
STARLINK-11272 [DTC]    
1 60723U 24152D   26044.87608359  .00001581  00000+0  17910-4 0  9990
2 60723  53.1601 233.7333 0001162 127.0602 233.0523 15.69709473 85099
STARLINK-11261 [DTC]    
1 60724U 24152E   26044.68998205 -.00002511  00000+0 -15867-4 0  9997
2 60724  53.1572 234.7093 0000711  45.4919 314.6157 15.69725479 85064
STARLINK-11263 [DTC]    
1 60725U 24152F   26044.87117964  .00002046  00000+0  21752-4 0  9995
2 60725  53.1590 233.7032 0001691 149.2421 210.8696 15.69705231 85098
STARLINK-11235 [DTC]    
1 60726U 24152G   26044.92994789  .00004315  00000+0  40466-4 0  9994
2 60726  53.1597 233.3541 0001174  84.2809 275.8342 15.69704319 85232
STARLINK-11080 [DTC]    
1 60727U 24152H   26044.92503703  .00003176  00000+0  31067-4 0  9998
2 60727  53.1581 233.3256 0001223 117.9951 242.1191 15.69706122 85239
STARLINK-11249 [DTC]    
1 60728U 24152J   26044.72912237 -.00000553  00000+0  29358-6 0  9992
2 60728  53.1580 234.2355 0000821  89.2339 270.8773 15.69717427 85079
STARLINK-11146 [DTC]    
1 60729U 24152K   26044.91522121  .00001176  00000+0  14551-4 0  9991
2 60729  53.1587 233.2520 0000596  80.5657 279.5428 15.69716954 85231
